STARLINK-37022          
1 68101U 26044A   26089.91667824 -.01948703  00000+0 -22796-1 0  9990
2 68101  97.2850  51.0749 0001695 100.1349 122.4086 15.64699766  4819
STARLINK-37046          
1 68102U 26044B   26089.91667824 -.01949350  00000+0 -22314-1 0  9996
2 68102  97.2850  51.0798 0001708 101.6913 131.6101 15.65244041  4815
STARLINK-37018          
1 68103U 26044C   26089.91667824 -.01950632  00000+0 -22102-1 0  9997
2 68103  97.2851  51.0843 0001773 105.4484 138.0017 15.65500122  4761
STARLINK-37041          
1 68104U 26044D   26089.91667824 -.01952840  00000+0 -21386-1 0  9994
2 68104  97.2847  51.0900 0001667 104.7293 151.4488 15.66350332  4761
STARLINK-37021          
1 68105U 26044E   26089.91667824 -.01955529  00000+0 -23121-1 0  9991
2 68105  97.2847  51.0856 0001784 100.9685 147.2136 15.64443788  4764
STARLINK-37024          
1 68106U 26044F   26089.91667824 -.01958422  00000+0 -21319-1 0  9994
2 68106  97.2849  51.0958 0001654 110.8319 160.5112 15.66508353  4764
STARLINK-37005          
1 68107U 26044G   26089.91667824 -.01951484  00000+0 -21892-1 0  9992
2 68107  97.2849  51.0865 0001726 103.9228 145.5734 15.65750346  4767
STARLINK-37017          
1 68108U 26044H   26089.91667824 -.01959369  00000+0 -20769-1 0  9995
2 68108  97.2841  51.0992 0001605 100.1806 177.8690 15.67165930  4768
STARLINK-36833          
1 68109U 26044J   26089.91667824 -.01959162  00000+0 -20396-1 0  9993
2 68109  97.2846  51.1026 0001634 106.4365 182.5535 15.67606801  4818
STARLINK-36830          
1 68110U 26044K   26089.91667824 -.01958107  00000+0 -20494-1 0  9992
2 68110  97.2845  51.1011 0001605 110.0507 174.0747 15.67474241  4812
STARLINK-36791          
1 68111U 26044L   26088.33531555 -.00265080  00000+0 -18534-2 0  9992
2 68111  97.2842  49.4581 0002644  63.2809 296.8727 15.74914516  4576
STARLINK-36893          
1 68112U 26044M   26089.91667824 -.01961099  00000+0 -19901-1 0  9999
2 68112  97.2844  51.1102 0001556 105.3833 201.4970 15.68233823  4811
