CCSDS_OMM_VERS = 2.0
CREATION_DATE  = 
ORIGINATOR     = 

OBJECT_NAME    = STARLINK-37022
OBJECT_ID      = 2026-044A
CENTER_NAME    = EARTH
REF_FRAME      = TEME
TIME_SYSTEM    = UTC
MEAN_ELEMENT_THEORY = SGP/SGP4

EPOCH          = 2026-03-30T22:00:00.999936
MEAN_MOTION    = 15.64699766
ECCENTRICITY   = .00016956
INCLINATION    = 97.2850
RA_OF_ASC_NODE = 51.0749
ARG_OF_PERICENTER = 100.1349
MEAN_ANOMALY   = 122.4086

EPHEMERIS_TYPE = 0
CLASSIFICATION_TYPE = U
NORAD_CAT_ID   = 68101
ELEMENT_SET_NO = 999
REV_AT_EPOCH   = 481
BSTAR          = -.2279642E-1
MEAN_MOTION_DOT = -.1948703E-1
MEAN_MOTION_DDOT = 0

CCSDS_OMM_VERS = 2.0
CREATION_DATE  = 
ORIGINATOR     = 

OBJECT_NAME    = STARLINK-37046
OBJECT_ID      = 2026-044B
CENTER_NAME    = EARTH
REF_FRAME      = TEME
TIME_SYSTEM    = UTC
MEAN_ELEMENT_THEORY = SGP/SGP4

EPOCH          = 2026-03-30T22:00:00.999936
MEAN_MOTION    = 15.65244041
ECCENTRICITY   = .00017084
INCLINATION    = 97.2850
RA_OF_ASC_NODE = 51.0798
ARG_OF_PERICENTER = 101.6913
MEAN_ANOMALY   = 131.6101

EPHEMERIS_TYPE = 0
CLASSIFICATION_TYPE = U
NORAD_CAT_ID   = 68102
ELEMENT_SET_NO = 999
REV_AT_EPOCH   = 481
BSTAR          = -.22314132E-1
MEAN_MOTION_DOT = -.194935E-1
MEAN_MOTION_DDOT = 0

CCSDS_OMM_VERS = 2.0
CREATION_DATE  = 
ORIGINATOR     = 

OBJECT_NAME    = STARLINK-37018
OBJECT_ID      = 2026-044C
CENTER_NAME    = EARTH
REF_FRAME      = TEME
TIME_SYSTEM    = UTC
MEAN_ELEMENT_THEORY = SGP/SGP4

EPOCH          = 2026-03-30T22:00:00.999936
MEAN_MOTION    = 15.65500122
ECCENTRICITY   = .00017734
INCLINATION    = 97.2851
RA_OF_ASC_NODE = 51.0843
ARG_OF_PERICENTER = 105.4484
MEAN_ANOMALY   = 138.0017

EPHEMERIS_TYPE = 0
CLASSIFICATION_TYPE = U
NORAD_CAT_ID   = 68103
ELEMENT_SET_NO = 999
REV_AT_EPOCH   = 476
BSTAR          = -.22101948E-1
MEAN_MOTION_DOT = -.1950632E-1
MEAN_MOTION_DDOT = 0

CCSDS_OMM_VERS = 2.0
CREATION_DATE  = 
ORIGINATOR     = 

OBJECT_NAME    = STARLINK-37041
OBJECT_ID      = 2026-044D
CENTER_NAME    = EARTH
REF_FRAME      = TEME
TIME_SYSTEM    = UTC
MEAN_ELEMENT_THEORY = SGP/SGP4

EPOCH          = 2026-03-30T22:00:00.999936
MEAN_MOTION    = 15.66350332
ECCENTRICITY   = .00016676
INCLINATION    = 97.2847
RA_OF_ASC_NODE = 51.0900
ARG_OF_PERICENTER = 104.7293
MEAN_ANOMALY   = 151.4488

EPHEMERIS_TYPE = 0
CLASSIFICATION_TYPE = U
NORAD_CAT_ID   = 68104
ELEMENT_SET_NO = 999
REV_AT_EPOCH   = 476
BSTAR          = -.21386023E-1
MEAN_MOTION_DOT = -.195284E-1
MEAN_MOTION_DDOT = 0

CCSDS_OMM_VERS = 2.0
CREATION_DATE  = 
ORIGINATOR     = 

OBJECT_NAME    = STARLINK-37021
OBJECT_ID      = 2026-044E
CENTER_NAME    = EARTH
REF_FRAME      = TEME
TIME_SYSTEM    = UTC
MEAN_ELEMENT_THEORY = SGP/SGP4

EPOCH          = 2026-03-30T22:00:00.999936
MEAN_MOTION    = 15.64443788
ECCENTRICITY   = .00017848
INCLINATION    = 97.2847
RA_OF_ASC_NODE = 51.0856
ARG_OF_PERICENTER = 100.9685
MEAN_ANOMALY   = 147.2136

EPHEMERIS_TYPE = 0
CLASSIFICATION_TYPE = U
NORAD_CAT_ID   = 68105
ELEMENT_SET_NO = 999
REV_AT_EPOCH   = 476
BSTAR          = -.23120509E-1
MEAN_MOTION_DOT = -.1955529E-1
MEAN_MOTION_DDOT = 0

CCSDS_OMM_VERS = 2.0
CREATION_DATE  = 
ORIGINATOR     = 

OBJECT_NAME    = STARLINK-37024
OBJECT_ID      = 2026-044F
CENTER_NAME    = EARTH
REF_FRAME      = TEME
TIME_SYSTEM    = UTC
MEAN_ELEMENT_THEORY = SGP/SGP4

EPOCH          = 2026-03-30T22:00:00.999936
MEAN_MOTION    = 15.66508353
ECCENTRICITY   = .00016541
INCLINATION    = 97.2849
RA_OF_ASC_NODE = 51.0958
ARG_OF_PERICENTER = 110.8319
MEAN_ANOMALY   = 160.5112

EPHEMERIS_TYPE = 0
CLASSIFICATION_TYPE = U
NORAD_CAT_ID   = 68106
ELEMENT_SET_NO = 999
REV_AT_EPOCH   = 476
BSTAR          = -.21318589E-1
MEAN_MOTION_DOT = -.1958422E-1
MEAN_MOTION_DDOT = 0

CCSDS_OMM_VERS = 2.0
CREATION_DATE  = 
ORIGINATOR     = 

OBJECT_NAME    = STARLINK-37005
OBJECT_ID      = 2026-044G
CENTER_NAME    = EARTH
REF_FRAME      = TEME
TIME_SYSTEM    = UTC
MEAN_ELEMENT_THEORY = SGP/SGP4

EPOCH          = 2026-03-30T22:00:00.999936
MEAN_MOTION    = 15.65750346
ECCENTRICITY   = .00017263
INCLINATION    = 97.2849
RA_OF_ASC_NODE = 51.0865
ARG_OF_PERICENTER = 103.9228
MEAN_ANOMALY   = 145.5734

EPHEMERIS_TYPE = 0
CLASSIFICATION_TYPE = U
NORAD_CAT_ID   = 68107
ELEMENT_SET_NO = 999
REV_AT_EPOCH   = 476
BSTAR          = -.21892083E-1
MEAN_MOTION_DOT = -.1951484E-1
MEAN_MOTION_DDOT = 0

CCSDS_OMM_VERS = 2.0
CREATION_DATE  = 
ORIGINATOR     = 

OBJECT_NAME    = STARLINK-37017
OBJECT_ID      = 2026-044H
CENTER_NAME    = EARTH
REF_FRAME      = TEME
TIME_SYSTEM    = UTC
MEAN_ELEMENT_THEORY = SGP/SGP4

EPOCH          = 2026-03-30T22:00:00.999936
MEAN_MOTION    = 15.67165930
ECCENTRICITY   = .00016059
INCLINATION    = 97.2841
RA_OF_ASC_NODE = 51.0992
ARG_OF_PERICENTER = 100.1806
MEAN_ANOMALY   = 177.8690

EPHEMERIS_TYPE = 0
CLASSIFICATION_TYPE = U
NORAD_CAT_ID   = 68108
ELEMENT_SET_NO = 999
REV_AT_EPOCH   = 476
BSTAR          = -.20768681E-1
MEAN_MOTION_DOT = -.1959369E-1
MEAN_MOTION_DDOT = 0

CCSDS_OMM_VERS = 2.0
CREATION_DATE  = 
ORIGINATOR     = 

OBJECT_NAME    = STARLINK-36833
OBJECT_ID      = 2026-044J
CENTER_NAME    = EARTH
REF_FRAME      = TEME
TIME_SYSTEM    = UTC
MEAN_ELEMENT_THEORY = SGP/SGP4

EPOCH          = 2026-03-30T22:00:00.999936
MEAN_MOTION    = 15.67606801
ECCENTRICITY   = .00016348
INCLINATION    = 97.2846
RA_OF_ASC_NODE = 51.1026
ARG_OF_PERICENTER = 106.4365
MEAN_ANOMALY   = 182.5535

EPHEMERIS_TYPE = 0
CLASSIFICATION_TYPE = U
NORAD_CAT_ID   = 68109
ELEMENT_SET_NO = 999
REV_AT_EPOCH   = 481
BSTAR          = -.20395763E-1
MEAN_MOTION_DOT = -.1959162E-1
MEAN_MOTION_DDOT = 0

CCSDS_OMM_VERS = 2.0
CREATION_DATE  = 
ORIGINATOR     = 

OBJECT_NAME    = STARLINK-36830
OBJECT_ID      = 2026-044K
CENTER_NAME    = EARTH
REF_FRAME      = TEME
TIME_SYSTEM    = UTC
MEAN_ELEMENT_THEORY = SGP/SGP4

EPOCH          = 2026-03-30T22:00:00.999936
MEAN_MOTION    = 15.67474241
ECCENTRICITY   = .00016051
INCLINATION    = 97.2845
RA_OF_ASC_NODE = 51.1011
ARG_OF_PERICENTER = 110.0507
MEAN_ANOMALY   = 174.0747

EPHEMERIS_TYPE = 0
CLASSIFICATION_TYPE = U
NORAD_CAT_ID   = 68110
ELEMENT_SET_NO = 999
REV_AT_EPOCH   = 481
BSTAR          = -.2049429E-1
MEAN_MOTION_DOT = -.1958107E-1
MEAN_MOTION_DDOT = 0

CCSDS_OMM_VERS = 2.0
CREATION_DATE  = 
ORIGINATOR     = 

OBJECT_NAME    = STARLINK-36791
OBJECT_ID      = 2026-044L
CENTER_NAME    = EARTH
REF_FRAME      = TEME
TIME_SYSTEM    = UTC
MEAN_ELEMENT_THEORY = SGP/SGP4

EPOCH          = 2026-03-29T08:02:51.263520
MEAN_MOTION    = 15.74914516
ECCENTRICITY   = .00026445
INCLINATION    = 97.2842
RA_OF_ASC_NODE = 49.4581
ARG_OF_PERICENTER = 63.2809
MEAN_ANOMALY   = 296.8727

EPHEMERIS_TYPE = 0
CLASSIFICATION_TYPE = U
NORAD_CAT_ID   = 68111
ELEMENT_SET_NO = 999
REV_AT_EPOCH   = 457
BSTAR          = -.18534162E-2
MEAN_MOTION_DOT = -.26508E-2
MEAN_MOTION_DDOT = 0

CCSDS_OMM_VERS = 2.0
CREATION_DATE  = 
ORIGINATOR     = 

OBJECT_NAME    = STARLINK-36893
OBJECT_ID      = 2026-044M
CENTER_NAME    = EARTH
REF_FRAME      = TEME
TIME_SYSTEM    = UTC
MEAN_ELEMENT_THEORY = SGP/SGP4

EPOCH          = 2026-03-30T22:00:00.999936
MEAN_MOTION    = 15.68233823
ECCENTRICITY   = .00015562
INCLINATION    = 97.2844
RA_OF_ASC_NODE = 51.1102
ARG_OF_PERICENTER = 105.3833
MEAN_ANOMALY   = 201.4970

EPHEMERIS_TYPE = 0
CLASSIFICATION_TYPE = U
NORAD_CAT_ID   = 68112
ELEMENT_SET_NO = 999
REV_AT_EPOCH   = 481
BSTAR          = -.19901216E-1
MEAN_MOTION_DOT = -.1961099E-1
MEAN_MOTION_DDOT = 0

